STARLINK-2636
1 18357C 21038E   21326.10050821  .00009707  00000-0  65033-3 0  3269
2 18357  53.0534 203.2850 0002011  74.7152  35.3656 15.06390008    10
